LOGSATS                 
1 62689U 25009CJ  26068.72615147  .00266017  00000+0  19541-2 0  9995
2 62689  97.3907 158.8419 0005393 263.6729  96.3920 15.72310294 64215
STARLINK-11651 [DTC]    
1 63664U 25085A   26067.97661269  .00268627  00000+0  20272-2 0  9997
2 63664  42.9996 282.3618 0001908 262.9269  97.1382 15.70873048 50143
